HAWK-7B                 
1 56193U 23054R   26068.68903567  .00007955  00000+0  31011-3 0  9998
2 56193  97.2859 316.7839 0003661  61.5878 298.5730 15.26206341161848
STARLINK-31075          
1 58594U 23200F   26067.35981993  .00000279  00000+0  20095-4 0  9993
2 58594  43.0013 175.8265 0001718 190.3160 169.7657 15.26747945123417
